NORAD_CAT_ID,OBJECT_NAME,OBJECT_TYPE,EPOCH,MEAN_MOTION,ECCENTRICITY,INCLINATION,RA_OF_ASC_NODE,ARG_OF_PERICENTER,MEAN_ANOMALY,BSTAR,MEAN_MOTION_DOT,MEAN_MOTION_DDOT,TLE_LINE0,TLE_LINE1,TLE_LINE2,SEMIMAJOR_AXIS,PERIOD,APOGEE,PERIGEE,DECAYED
49454.0,STARLINK-3160,PAYLOAD,2022-04-08 22:00:00,15.08834851,0.0002673,53.2169,162.099,20.1541,122.3251,-0.00076577,-0.00012454,0.0,0 STARLINK-3160,1 49454U 21104AY  22098.91667824 -.00012454  00000-0 -76577-3 0  9991,2 49454  53.2169 162.0990 0002673  20.1541 122.3251 15.08834851  3576,6917.896,95.438,541.61,537.9119999999998,0.0
49454.0,STARLINK-3160,PAYLOAD,2022-04-09 14:00:01,15.08799789,0.0002894,53.2171,159.108,18.5374,147.1161,0.002197,0.00034813,0.0,0 STARLINK-3160,1 49454U 21104AY  22099.58334491  .00034813  00000-0  21970-2 0  9993,2 49454  53.2171 159.1080 0002894  18.5374 147.1161 15.08799789  3605,6918.003000000002,95.44,541.87,537.866,0.0
49454.0,STARLINK-3160,PAYLOAD,2022-04-09 20:00:01,15.0883674,0.0002809,53.2169,157.9844,18.939,65.3868,-0.0011243,-0.00018137,0.0,0 STARLINK-3160,1 49454U 21104AY  22099.83334491 -.00018137  00000-0 -11243-2 0  9996,2 49454  53.2169 157.9844 0002809  18.9390  65.3868 15.08836740 24005,6917.89,95.438,541.6990000000002,537.812,0.0
49454.0,STARLINK-3160,PAYLOAD,2022-04-09 22:00:00,15.08822166,0.0002738,53.217,157.61,19.1518,158.0741,0.00092007,0.00014378,0.0,0 STARLINK-3160,1 49454U 21104AY  22099.91667824  .00014378  00000-0  92007-3 0  9993,2 49454  53.2170 157.6100 0002738  19.1518 158.0741 15.08822166  3605,6917.935,95.439,541.694,537.906,0.0
49454.0,STARLINK-3160,PAYLOAD,2022-04-10 04:00:00,15.08835023,0.0002719,53.2172,156.4873,22.027,73.8814,0.0017427,0.00027553,0.0,0 STARLINK-3160,1 49454U 21104AY  22100.16667824  .00027553  00000-0  17427-2 0  9994,2 49454  53.2172 156.4873 0002719  22.0270  73.8814 15.08835023 24051,6917.896,95.438,541.6419999999998,537.88,0.0
49454.0,STARLINK-3160,PAYLOAD,2022-04-10 12:00:00,15.08839571,0.0002975,53.2173,154.9929,20.3687,87.1353,0.00031339,4.703e-05,0.0,0 STARLINK-3160,1 49454U 21104AY  22100.50001157  .00004703  00000-0  31339-3 0  9994,2 49454  53.2173 154.9929 0002975  20.3687  87.1353 15.08839571 24108,6917.882,95.438,541.805,537.689,0.0
49454.0,STARLINK-3160,PAYLOAD,2022-04-10 14:00:01,15.08832048,0.0003005,53.2174,154.619,19.2701,181.1361,0.0013008,0.00020471,0.0,0 STARLINK-3160,1 49454U 21104AY  22100.58334491  .00020471  00000-0  13008-2 0  9994,2 49454  53.2174 154.6190 0003005  19.2701 181.1361 15.08832048  3603,6917.905,95.438,541.849,537.691,0.0
49454.0,STARLINK-3160,PAYLOAD,2022-04-10 22:00:00,15.08829202,0.0002815,53.2175,153.1209,18.9316,193.0936,0.00158,0.00024941,0.0,0 STARLINK-3160,1 49454U 21104AY  22100.91667824  .00024941  00000-0  15800-2 0  9998,2 49454  53.2175 153.1209 0002815  18.9316 193.0936 15.08829202  3603,6917.913000000001,95.438,541.726,537.831,0.0
49454.0,STARLINK-3160,PAYLOAD,2022-04-11 12:00:00,15.08808524,0.0003025,53.2179,150.504,18.0818,124.2273,0.001743,0.00027538,0.0,0 STARLINK-3160,1 49454U 21104AY  22101.50001157  .00027538  00000-0  17430-2 0  9991,2 49454  53.2179 150.5040 0003025  18.0818 124.2273 15.08808524 24251,6917.977,95.44,541.934,537.749,0.0
49454.0,STARLINK-3160,PAYLOAD,2022-04-11 14:00:01,15.08806896,0.0003048,53.2178,150.13,17.1548,218.0476,0.0022093,0.00035018,0.0,0 STARLINK-3160,1 49454U 21104AY  22101.58334491  .00035018  00000-0  22093-2 0  9992,2 49454  53.2178 150.1300 0003048  17.1548 218.0476 15.08806896  3603,6917.982,95.44,541.955,537.738,0.0
49454.0,STARLINK-3160,PAYLOAD,2022-04-11 22:00:00,15.08802651,0.0002845,53.218,148.6319,17.0995,229.6834,0.00070364,0.00010917,0.0,0 STARLINK-3160,1 49454U 21104AY  22101.91667824  .00010917  00000-0  70364-3 0  9994,2 49454  53.2180 148.6319 0002845  17.0995 229.6834 15.08802651  3596,6917.995,95.44,541.828,537.891,0.0
49454.0,STARLINK-3160,PAYLOAD,2022-04-12 04:00:00,15.08813355,0.0002816,53.2184,147.5097,19.0414,146.3978,0.00038125,5.78e-05,0.0,0 STARLINK-3160,1 49454U 21104AY  22102.16667824  .00005780  00000-0  38125-3 0  9993,2 49454  53.2184 147.5097 0002816  19.0414 146.3978 15.08813355 24351,6917.962,95.439,541.775,537.879,0.0
49454.0,STARLINK-3160,PAYLOAD,2022-04-12 14:00:01,15.0879394,0.0003108,53.2181,145.6413,17.3453,252.5522,0.0030459,0.00048462,0.0,0 STARLINK-3160,1 49454U 21104AY  22102.58334491  .00048462  00000-0  30459-2 0  9995,2 49454  53.2181 145.6413 0003108  17.3453 252.5522 15.08793940  3605,6918.021,95.44,542.036,537.736,0.0
49454.0,STARLINK-3160,PAYLOAD,2022-04-12 22:00:00,15.08805258,0.000291,53.2183,144.1438,18.5561,262.9075,0.0020246,0.00032051,0.0,0 STARLINK-3160,1 49454U 21104AY  22102.91667824  .00032051  00000-0  20246-2 0  9991,2 49454  53.2183 144.1438 0002910  18.5561 262.9075 15.08805258  3560,6917.986999999999,95.44,541.865,537.8380000000002,0.0
49454.0,STARLINK-3160,PAYLOAD,2022-04-13 04:00:00,15.08778754,0.0002944,53.2181,143.0219,19.7649,180.3738,0.015307,0.00251728,0.0,0 STARLINK-3160,1 49454U 21104AY  22103.16667824  .00251728  00000-0  15307-1 0  9994,2 49454  53.2181 143.0219 0002944  19.7649 180.3738 15.08778754 24506,6918.068,95.441,541.969,537.896,0.0
49454.0,STARLINK-3160,PAYLOAD,2022-04-13 12:00:00,15.08811952,0.0003158,53.2182,141.5265,19.4218,192.3002,0.0024467,0.00038838,0.0,0 STARLINK-3160,1 49454U 21104AY  22103.50001157  .00038838  00000-0  24467-2 0  9996,2 49454  53.2182 141.5265 0003158  19.4218 192.3002 15.08811952 24558,6917.965999999999,95.439,542.016,537.646,0.0
49454.0,STARLINK-3160,PAYLOAD,2022-04-13 14:00:03,15.08817036,0.0003152,53.2178,141.1522,18.8201,285.9223,0.0026681,0.00042406,0.0,0 STARLINK-3160,1 49454U 21104AY  22103.58336806  .00042406  00000-0  26681-2 0  9992,2 49454  53.2178 141.1522 0003152  18.8201 285.9223 15.08817036  3565,6917.951,95.439,541.996,537.635,0.0
49454.0,STARLINK-3160,PAYLOAD,2022-04-13 22:00:00,15.08820504,0.0002921,53.2179,139.6543,20.8969,295.3135,0.0025921,0.00041186,0.0,0 STARLINK-3160,1 49454U 21104AY  22103.91667824  .00041186  00000-0  25921-2 0  9996,2 49454  53.2179 139.6543 0002921  20.8969 295.3135 15.08820504  3615,6917.94,95.439,541.826,537.784,0.0
49454.0,STARLINK-3160,PAYLOAD,2022-04-14 06:00:00,15.08858367,0.0002999,53.218,138.1588,21.7697,306.0196,-0.0016867,-0.00027048,0.0,0 STARLINK-3160,1 49454U 21104AY  22104.25001157 -.00027048  00000-0 -16867-2 0  9997,2 49454  53.2180 138.1588 0002999  21.7697 306.0196 15.08858367 24666,6917.824000000001,95.436,541.764,537.615,0.0
49454.0,STARLINK-3160,PAYLOAD,2022-04-14 14:00:01,15.08833442,0.0003177,53.2174,136.6633,20.5077,318.8882,0.0018309,0.00028967,0.0,0 STARLINK-3160,1 49454U 21104AY  22104.58334491  .00028967  00000-0  18309-2 0  9995,2 49454  53.2174 136.6633 0003177  20.5077 318.8882 15.08833442  3590,6917.9,95.438,541.9630000000002,537.568,0.0
49454.0,STARLINK-3160,PAYLOAD,2022-04-14 20:00:01,15.08849906,0.0003002,53.2174,135.5396,22.3658,235.7333,-0.00012328,-2.251e-05,0.0,0 STARLINK-3160,1 49454U 21104AY  22104.83334491 -.00002251  00000-0 -12328-3 0  9999,2 49454  53.2174 135.5396 0003002  22.3658 235.7333 15.08849906 24757,6917.85,95.437,541.7919999999998,537.638,0.0
49454.0,STARLINK-3160,PAYLOAD,2022-04-14 22:00:00,15.08828501,0.0002942,53.2172,135.1652,23.085,327.923,0.0027665,0.00044004,0.0,0 STARLINK-3160,1 49454U 21104AY  22104.91667824  .00044004  00000-0  27665-2 0  9996,2 49454  53.2172 135.1652 0002942  23.0850 327.9230 15.08828501  3609,6917.916,95.438,541.816,537.745,0.0
49454.0,STARLINK-3160,PAYLOAD,2022-04-15 12:00:00,15.0886136,0.0003198,53.2169,132.5484,22.6534,258.6909,0.00066871,0.00010377,0.0,0 STARLINK-3160,1 49454U 21104AY  22105.50001157  .00010377  00000-0  66871-3 0  9992,2 49454  53.2169 132.5484 0003198  22.6534 258.6909 15.08861360 24850,6917.815,95.436,541.8919999999998,537.4680000000002,0.0
49454.0,STARLINK-3160,PAYLOAD,2022-04-15 14:00:01,15.08874595,0.0003188999999999,53.2166,132.174,21.6271,352.6203,-0.0012369,-0.00019941,0.0,0 STARLINK-3160,1 49454U 21104AY  22105.58334491 -.00019941  00000-0 -12369-2 0  9990,2 49454  53.2166 132.1740 0003189  21.6271 352.6203 15.08874595  3601,6917.775,95.435,541.846,537.434,0.0
49454.0,STARLINK-3160,PAYLOAD,2022-04-15 20:00:01,15.08840655,0.0002996,53.2167,131.0502,22.7931,270.1794,0.00062749,9.713e-05,0.0,0 STARLINK-3160,1 49454U 21104AY  22105.83334491  .00009713  00000-0  62749-3 0  9990,2 49454  53.2167 131.0502 0002996  22.7931 270.1794 15.08840655 24901,6917.878000000002,95.438,541.816,537.6709999999998,0.0
49454.0,STARLINK-3160,PAYLOAD,2022-04-15 22:00:00,15.08824553,0.0002927,53.2165,130.6757,22.8815,2.9969,0.0029388,0.00046776,0.0,0 STARLINK-3160,1 49454U 21104AY  22105.91667824  .00046776  00000-0  29388-2 0  9999,2 49454  53.2165 130.6757 0002927  22.8815   2.9969 15.08824553  3587,6917.928000000001,95.439,541.817,537.768,0.0
49454.0,STARLINK-3160,PAYLOAD,2022-04-16 12:00:02,15.08799994,0.0003201,53.2163,128.0589,21.0938,295.1396,0.0028624,0.00045514,0.0,0 STARLINK-3160,1 49454U 21104AY  22106.50002315  .00045514  00000-0  28624-2 0  9994,2 49454  53.2163 128.0589 0003201  21.0938 295.1396 15.08799994 25003,6918.003000000002,95.44,542.082,537.653,0.0
49454.0,STARLINK-3160,PAYLOAD,2022-04-16 14:00:01,15.08817963,0.0003199,53.2161,127.6845,20.471,28.5858,0.0010195,0.00015965,0.0,0 STARLINK-3160,1 49454U 21104AY  22106.58334491  .00015965  00000-0  10195-2 0  9996,2 49454  53.2161 127.6845 0003199  20.4710  28.5858 15.08817963  3608,6917.948,95.439,542.026,537.6,0.0
49454.0,STARLINK-3160,PAYLOAD,2022-04-16 20:00:01,15.0881478,0.000303,53.2162,126.5608,22.7089,305.0326,0.0009682,0.00015144,0.0,0 STARLINK-3160,1 49454U 21104AY  22106.83334491  .00015144  00000-0  96820-3 0  9993,2 49454  53.2162 126.5608 0003030  22.7089 305.0326 15.08814780 25052,6917.956999999999,95.439,541.919,537.726,0.0
